[{"OBJECT_NAME":"ONEWEB-0582","OBJECT_ID":"2022-166H","EPOCH":"2026-02-28T06:42:55.678176","MEAN_MOTION":13.21825236,"ECCENTRICITY":0.00012708,"INCLINATION":87.917,"RA_OF_ASC_NODE":265.697,"ARG_OF_PERICENTER":77.0835,"MEAN_ANOMALY":283.0441,"EPHEMERIS_TYPE":0,"CLASSIFICATION_TYPE":"U","NORAD_CAT_ID":54649,"ELEMENT_SET_NO":999,"REV_AT_EPOCH":15713,"BSTAR":0.00019546129,"MEAN_MOTION_DOT":9.4e-7,"MEAN_MOTION_DDOT":0},{"OBJECT_NAME":"ONEWEB-0583","OBJECT_ID":"2022-166J","EPOCH":"2026-02-28T01:32:29.945472","MEAN_MOTION":13.21825981,"ECCENTRICITY":0.00014736,"INCLINATION":87.9169,"RA_OF_ASC_NODE":265.7632,"ARG_OF_PERICENTER":89.5306,"MEAN_ANOMALY":270.5997,"EPHEMERIS_TYPE":0,"CLASSIFICATION_TYPE":"U","NORAD_CAT_ID":54650,"ELEMENT_SET_NO":999,"REV_AT_EPOCH":15711,"BSTAR":0.00013077509,"MEAN_MOTION_DOT":6.7e-7,"MEAN_MOTION_DDOT":0},{"OBJECT_NAME":"ONEWEB-0584","OBJECT_ID":"2022-166K","EPOCH":"2026-02-28T02:00:56.705760","MEAN_MOTION":13.21825922,"ECCENTRICITY":0.00014835,"INCLINATION":87.9165,"RA_OF_ASC_NODE":265.7469,"ARG_OF_PERICENTER":77.602,"MEAN_ANOMALY":282.528,"EPHEMERIS_TYPE":0,"CLASSIFICATION_TYPE":"U","NORAD_CAT_ID":54651,"ELEMENT_SET_NO":999,"REV_AT_EPOCH":15710,"BSTAR":0.00036387446,"MEAN_MOTION_DOT":1.63e-6,"MEAN_MOTION_DDOT":0},{"OBJECT_NAME":"ONEWEB-0585","OBJECT_ID":"2022-166L","EPOCH":"2026-02-28T02:36:27.702144","MEAN_MOTION":13.21827224,"ECCENTRICITY":0.00017496,"INCLINATION":87.9165,"RA_OF_ASC_NODE":265.7265,"ARG_OF_PERICENTER":91.1141,"MEAN_ANOMALY":269.0193,"EPHEMERIS_TYPE":0,"CLASSIFICATION_TYPE":"U","NORAD_CAT_ID":54652,"ELEMENT_SET_NO":999,"REV_AT_EPOCH":15711,"BSTAR":-2.828563e-6,"MEAN_MOTION_DOT":1.2e-7,"MEAN_MOTION_DDOT":0},{"OBJECT_NAME":"ONEWEB-0586","OBJECT_ID":"2022-166M","EPOCH":"2026-02-28T06:33:26.741088","MEAN_MOTION":13.21824376,"ECCENTRICITY":0.00014233,"INCLINATION":87.9166,"RA_OF_ASC_NODE":265.719,"ARG_OF_PERICENTER":87.9805,"MEAN_ANOMALY":272.1492,"EPHEMERIS_TYPE":0,"CLASSIFICATION_TYPE":"U","NORAD_CAT_ID":54653,"ELEMENT_SET_NO":999,"REV_AT_EPOCH":15713,"BSTAR":0.00012721862,"MEAN_MOTION_DOT":6.6e-7,"MEAN_MOTION_DDOT":0},{"OBJECT_NAME":"ONEWEB-0587","OBJECT_ID":"2022-166N","EPOCH":"2026-02-28T06:47:39.490080","MEAN_MOTION":13.21827557,"ECCENTRICITY":0.00019303,"INCLINATION":87.9179,"RA_OF_ASC_NODE":265.68,"ARG_OF_PERICENTER":97.5534,"MEAN_ANOMALY":262.582,"EPHEMERIS_TYPE":0,"CLASSIFICATION_TYPE":"U","NORAD_CAT_ID":54654,"ELEMENT_SET_NO":999,"REV_AT_EPOCH":15729,"BSTAR":7.3333901e-5,"MEAN_MOTION_DOT":4.3e-7,"MEAN_MOTION_DDOT":0},{"OBJECT_NAME":"ONEWEB-0589","OBJECT_ID":"2022-166P","EPOCH":"2026-02-28T06:28:41.152800","MEAN_MOTION":13.21826107,"ECCENTRICITY":0.00012647,"INCLINATION":87.9165,"RA_OF_ASC_NODE":265.709,"ARG_OF_PERICENTER":57.5908,"MEAN_ANOMALY":302.5348,"EPHEMERIS_TYPE":0,"CLASSIFICATION_TYPE":"U","NORAD_CAT_ID":54655,"ELEMENT_SET_NO":999,"REV_AT_EPOCH":15715,"BSTAR":0.0001698689,"MEAN_MOTION_DOT":8.3e-7,"MEAN_MOTION_DDOT":0},{"OBJECT_NAME":"ONEWEB-0590","OBJECT_ID":"2022-166Q","EPOCH":"2026-02-28T01:37:02.553888","MEAN_MOTION":13.21826602,"ECCENTRICITY":0.00019188,"INCLINATION":87.9179,"RA_OF_ASC_NODE":265.7282,"ARG_OF_PERICENTER":79.1457,"MEAN_ANOMALY":280.9893,"EPHEMERIS_TYPE":0,"CLASSIFICATION_TYPE":"U","NORAD_CAT_ID":54656,"ELEMENT_SET_NO":999,"REV_AT_EPOCH":15711,"BSTAR":0.00024006171,"MEAN_MOTION_DOT":1.12e-6,"MEAN_MOTION_DDOT":0},{"OBJECT_NAME":"ONEWEB-0591","OBJECT_ID":"2022-166R","EPOCH":"2026-02-28T01:53:48.479712","MEAN_MOTION":13.21827796,"ECCENTRICITY":0.00016377,"INCLINATION":87.9168,"RA_OF_ASC_NODE":265.7482,"ARG_OF_PERICENTER":87.0373,"MEAN_ANOMALY":273.0948,"EPHEMERIS_TYPE":0,"CLASSIFICATION_TYPE":"U","NORAD_CAT_ID":54657,"ELEMENT_SET_NO":999,"REV_AT_EPOCH":15714,"BSTAR":0.00026908424,"MEAN_MOTION_DOT":1.24e-6,"MEAN_MOTION_DDOT":0},{"OBJECT_NAME":"ONEWEB-0592","OBJECT_ID":"2022-166S","EPOCH":"2026-02-28T01:58:34.204512","MEAN_MOTION":13.21827363,"ECCENTRICITY":0.00016315,"INCLINATION":87.9175,"RA_OF_ASC_NODE":265.7177,"ARG_OF_PERICENTER":86.8358,"MEAN_ANOMALY":273.2963,"EPHEMERIS_TYPE":0,"CLASSIFICATION_TYPE":"U","NORAD_CAT_ID":54658,"ELEMENT_SET_NO":999,"REV_AT_EPOCH":15702,"BSTAR":0.00017740082,"MEAN_MOTION_DOT":8.6e-7,"MEAN_MOTION_DDOT":0},{"OBJECT_NAME":"ONEWEB-0593","OBJECT_ID":"2022-166T","EPOCH":"2026-02-28T00:42:44.517024","MEAN_MOTION":13.2182634,"ECCENTRICITY":0.00014491,"INCLINATION":87.917,"RA_OF_ASC_NODE":265.748,"ARG_OF_PERICENTER":90.1284,"MEAN_ANOMALY":270.0016,"EPHEMERIS_TYPE":0,"CLASSIFICATION_TYPE":"U","NORAD_CAT_ID":54659,"ELEMENT_SET_NO":999,"REV_AT_EPOCH":15712,"BSTAR":0.00017532818,"MEAN_MOTION_DOT":8.5e-7,"MEAN_MOTION_DDOT":0},{"OBJECT_NAME":"ONEWEB-0594","OBJECT_ID":"2022-166U","EPOCH":"2026-02-28T06:38:10.166784","MEAN_MOTION":13.21827585,"ECCENTRICITY":0.00016716,"INCLINATION":87.9165,"RA_OF_ASC_NODE":265.7167,"ARG_OF_PERICENTER":92.9702,"MEAN_ANOMALY":267.1624,"EPHEMERIS_TYPE":0,"CLASSIFICATION_TYPE":"U","NORAD_CAT_ID":54660,"ELEMENT_SET_NO":999,"REV_AT_EPOCH":15717,"BSTAR":0.00019472551,"MEAN_MOTION_DOT":9.3e-7,"MEAN_MOTION_DDOT":0},{"OBJECT_NAME":"ONEWEB-0595","OBJECT_ID":"2022-166V","EPOCH":"2026-02-28T02:26:59.829504","MEAN_MOTION":13.21826864,"ECCENTRICITY":0.00018109,"INCLINATION":87.9168,"RA_OF_ASC_NODE":265.7236,"ARG_OF_PERICENTER":90.6399,"MEAN_ANOMALY":269.4943,"EPHEMERIS_TYPE":0,"CLASSIFICATION_TYPE":"U","NORAD_CAT_ID":54661,"ELEMENT_SET_NO":999,"REV_AT_EPOCH":15712,"BSTAR":-4.412703e-6,"MEAN_MOTION_DOT":1.1e-7,"MEAN_MOTION_DDOT":0},{"OBJECT_NAME":"ONEWEB-0596","OBJECT_ID":"2022-166W","EPOCH":"2026-02-28T01:49:04.323072","MEAN_MOTION":13.21827501,"ECCENTRICITY":0.00016724,"INCLINATION":87.9173,"RA_OF_ASC_NODE":265.7464,"ARG_OF_PERICENTER":89.6496,"MEAN_ANOMALY":270.4829,"EPHEMERIS_TYPE":0,"CLASSIFICATION_TYPE":"U","NORAD_CAT_ID":54662,"ELEMENT_SET_NO":999,"REV_AT_EPOCH":15712,"BSTAR":0.00023224783,"MEAN_MOTION_DOT":1.09e-6,"MEAN_MOTION_DDOT":0},{"OBJECT_NAME":"ONEWEB-0597","OBJECT_ID":"2022-166X","EPOCH":"2026-02-28T06:50:02.183136","MEAN_MOTION":13.21825763,"ECCENTRICITY":0.00015386,"INCLINATION":87.9165,"RA_OF_ASC_NODE":265.7101,"ARG_OF_PERICENTER":86.2028,"MEAN_ANOMALY":273.9282,"EPHEMERIS_TYPE":0,"CLASSIFICATION_TYPE":"U","NORAD_CAT_ID":54663,"ELEMENT_SET_NO":999,"REV_AT_EPOCH":15715,"BSTAR":0.00028643995,"MEAN_MOTION_DOT":1.31e-6,"MEAN_MOTION_DDOT":0},{"OBJECT_NAME":"ONEWEB-0600","OBJECT_ID":"2022-166Y","EPOCH":"2026-02-28T06:23:57.091200","MEAN_MOTION":13.21828682,"ECCENTRICITY":0.00013823,"INCLINATION":87.9166,"RA_OF_ASC_NODE":265.7048,"ARG_OF_PERICENTER":95.7095,"MEAN_ANOMALY":264.4196,"EPHEMERIS_TYPE":0,"CLASSIFICATION_TYPE":"U","NORAD_CAT_ID":54664,"ELEMENT_SET_NO":999,"REV_AT_EPOCH":15712,"BSTAR":0.00023232719,"MEAN_MOTION_DOT":1.09e-6,"MEAN_MOTION_DDOT":0},{"OBJECT_NAME":"ONEWEB-0601","OBJECT_ID":"2022-166Z","EPOCH":"2026-02-28T06:12:07.380000","MEAN_MOTION":13.21826162,"ECCENTRICITY":0.00014252,"INCLINATION":87.9164,"RA_OF_ASC_NODE":265.7237,"ARG_OF_PERICENTER":82.1135,"MEAN_ANOMALY":278.0161,"EPHEMERIS_TYPE":0,"CLASSIFICATION_TYPE":"U","NORAD_CAT_ID":54665,"ELEMENT_SET_NO":999,"REV_AT_EPOCH":15731,"BSTAR":-4.8969283e-5,"MEAN_MOTION_DOT":-7.0e-8,"MEAN_MOTION_DDOT":0}]
