ONEWEB-0582             
1 54649U 22166H   26059.27981109  .00000094  00000+0  19546-3 0  9994
2 54649  87.9170 265.6970 0001270  77.0835 283.0441 13.21825236157139
ONEWEB-0583             
1 54650U 22166J   26059.06423548  .00000067  00000+0  13078-3 0  9995
2 54650  87.9169 265.7632 0001473  89.5306 270.5997 13.21825981157113
ONEWEB-0584             
1 54651U 22166K   26059.08398965  .00000163  00000+0  36387-3 0  9997
2 54651  87.9165 265.7469 0001483  77.6020 282.5280 13.21825922157102
ONEWEB-0585             
1 54652U 22166L   26059.10865396  .00000012  00000+0 -28286-5 0  9993
2 54652  87.9165 265.7265 0001749  91.1141 269.0193 13.21827224157118
ONEWEB-0586             
1 54653U 22166M   26059.27322617  .00000066  00000+0  12722-3 0  9990
2 54653  87.9166 265.7190 0001423  87.9805 272.1492 13.21824376157130
ONEWEB-0587             
1 54654U 22166N   26059.28309595  .00000043  00000+0  73334-4 0  9994
2 54654  87.9179 265.6800 0001930  97.5534 262.5820 13.21827557157290
ONEWEB-0589             
1 54655U 22166P   26059.26992075  .00000083  00000+0  16987-3 0  9998
2 54655  87.9165 265.7090 0001264  57.5908 302.5348 13.21826107157154
ONEWEB-0590             
1 54656U 22166Q   26059.06739067  .00000112  00000+0  24006-3 0  9991
2 54656  87.9179 265.7282 0001918  79.1457 280.9893 13.21826602157118
ONEWEB-0591             
1 54657U 22166R   26059.07903333  .00000124  00000+0  26908-3 0  9998
2 54657  87.9168 265.7482 0001637  87.0373 273.0948 13.21827796157144
ONEWEB-0592             
1 54658U 22166S   26059.08234033  .00000086  00000+0  17740-3 0  9995
2 54658  87.9175 265.7177 0001631  86.8358 273.2963 13.21827363157024
ONEWEB-0593             
1 54659U 22166T   26059.02968191  .00000085  00000+0  17533-3 0  9998
2 54659  87.9170 265.7480 0001449  90.1284 270.0016 13.21826340157129
ONEWEB-0594             
1 54660U 22166U   26059.27650656  .00000093  00000+0  19473-3 0  9995
2 54660  87.9165 265.7167 0001671  92.9702 267.1624 13.21827585157178
ONEWEB-0595             
1 54661U 22166V   26059.10208136  .00000011  00000+0 -44127-5 0  9997
2 54661  87.9168 265.7236 0001810  90.6399 269.4943 13.21826864157124
ONEWEB-0596             
1 54662U 22166W   26059.07574448  .00000109  00000+0  23225-3 0  9997
2 54662  87.9173 265.7464 0001672  89.6496 270.4829 13.21827501157120
ONEWEB-0597             
1 54663U 22166X   26059.28474749  .00000131  00000+0  28644-3 0  9999
2 54663  87.9165 265.7101 0001538  86.2028 273.9282 13.21825763157157
ONEWEB-0600             
1 54664U 22166Y   26059.26663300  .00000109  00000+0  23233-3 0  9995
2 54664  87.9166 265.7048 0001382  95.7095 264.4196 13.21828682157124
ONEWEB-0601             
1 54665U 22166Z   26059.25841875 -.00000007  00000+0 -48969-4 0  9993
2 54665  87.9164 265.7237 0001425  82.1135 278.0161 13.21826162157311
